[{"id":"49202","name":"ONEWEB-0336","tle1":"1 49202U 21083S   26175.64790068 -.00000168  00000+0 -49519-3 0  9999","tle2":"2 49202  87.8960 318.7418 0002034  91.1523 268.9839 13.13472367231894"},{"id":"49203","name":"ONEWEB-0337","tle1":"1 49203U 21083T   26175.65790557 -.00000205  00000+0 -59615-3 0  9994","tle2":"2 49203  87.8959 318.7459 0002060  97.2742 262.8622 13.13470890231899"},{"id":"49204","name":"ONEWEB-0338","tle1":"1 49204U 21083U   26176.22282358  .00000072  00000+0  14575-3 0  9990","tle2":"2 49204  87.9179 272.8463 0001786 105.9786 254.1544 13.20774403237875"},{"id":"49205","name":"ONEWEB-0339","tle1":"1 49205U 21083V   26175.66650194 -.00000084  00000+0 -26470-3 0  9997","tle2":"2 49205  87.8961 318.7368 0001760 107.0017 253.1305 13.13470635231870"},{"id":"49206","name":"ONEWEB-0340","tle1":"1 49206U 21083W   26176.17643777  .00000066  00000+0  13592-3 0  9993","tle2":"2 49206  87.9178 333.8660 0001958  91.3628 268.7729 13.18686148231029"},{"id":"49207","name":"ONEWEB-0341","tle1":"1 49207U 21083X   26176.18318222 -.00000011  00000+0 -61076-4 0  9992","tle2":"2 49207  87.9169 333.8672 0002327  98.7937 261.3459 13.18686112231040"},{"id":"49208","name":"ONEWEB-0342","tle1":"1 49208U 21083Y   26176.22958194  .00000090  00000+0  18981-3 0  9997","tle2":"2 49208  87.9195 272.8342 0002011 103.3640 256.7717 13.20771450237842"},{"id":"49209","name":"ONEWEB-0343","tle1":"1 49209U 21083Z   26176.19161522  .00000034  00000+0  54659-4 0  9996","tle2":"2 49209  87.9169 333.8643 0001802 107.9802 252.1527 13.18686237231098"},{"id":"49210","name":"ONEWEB-0344","tle1":"1 49210U 21083AA  26175.66141333 -.00000170  00000+0 -50014-3 0  9990","tle2":"2 49210  87.8951 318.7515 0002193 100.8392 259.2984 13.13468966231871"},{"id":"49211","name":"ONEWEB-0345","tle1":"1 49211U 21083AB  26175.65295367 -.00000193  00000+0 -56386-3 0  9990","tle2":"2 49211  87.8969 318.7353 0002137 101.3286 258.8084 13.13468649231882"},{"id":"49212","name":"ONEWEB-0346","tle1":"1 49212U 21083AC  26176.18824239 -.00000079  00000+0 -23273-3 0  9998","tle2":"2 49212  87.9166 333.8649 0002144  77.2895 282.8476 13.18685561231032"},{"id":"49213","name":"ONEWEB-0348","tle1":"1 49213U 21083AD  26176.29523843  .00000101  00000+0  21563-3 0  9992","tle2":"2 49213  87.9197 272.8253 0002503  92.1750 267.9670 13.20771323237889"},{"id":"49214","name":"ONEWEB-0350","tle1":"1 49214U 21083AE  26175.82392506  .00015300  00000+0  41843-1 0  9999","tle2":"2 49214  87.8962 318.7068 0001502 107.6379 252.4914 13.13386891231934"},{"id":"49215","name":"ONEWEB-0351","tle1":"1 49215U 21083AF  26176.28836168  .00000061  00000+0  11773-3 0  9997","tle2":"2 49215  87.9197 272.8254 0002389 121.1152 239.0216 13.20770956237846"},{"id":"49216","name":"ONEWEB-0352","tle1":"1 49216U 21083AG  26175.94751499 -.00000175  00000+0 -51482-3 0  9992","tle2":"2 49216  87.8961 318.6872 0001855 111.3719 248.7608 13.13470093232047"},{"id":"49217","name":"ONEWEB-0354","tle1":"1 49217U 21083AH  26176.23966968  .00000016  00000+0  79075-5 0  9997","tle2":"2 49217  87.9198 272.8338 0002437  96.2378 263.9033 13.20772968237879"},{"id":"49218","name":"ONEWEB-0355","tle1":"1 49218U 21083AJ  26175.82407078  .00001345  00000+0  36471-2 0  9990","tle2":"2 49218  87.8959 318.7130 0001645 107.8096 252.3213 13.13481760231909"},{"id":"49219","name":"ONEWEB-0357","tle1":"1 49219U 21083AK  26176.23630459  .00000018  00000+0  11143-4 0  9995","tle2":"2 49219  87.9200 272.8286 0002046 105.6595 254.4764 13.20773098237870"},{"id":"49279","name":"ONEWEB-0332","tle1":"1 49279U 21090A   26176.28712027  .00000115  00000+0  27463-3 0  9995","tle2":"2 49279  87.8970 288.0948 0001757 104.1273 256.0052 13.14502400228641"},{"id":"49280","name":"ONEWEB-0347","tle1":"1 49280U 21090B   26176.22621494  .00000027  00000+0  34251-4 0  9994","tle2":"2 49280  87.9197 272.8390 0001768 103.7300 256.4030 13.20771782232109"},{"id":"49281","name":"ONEWEB-0349","tle1":"1 49281U 21090C   26176.25819360 -.00000003  00000+0 -38829-4 0  9990","tle2":"2 49281  87.9199 272.8329 0002098 100.9837 259.1533 13.20772885230892"},{"id":"49282","name":"ONEWEB-0353","tle1":"1 49282U 21090D   26176.27919173 -.00000010  00000+0 -61895-4 0  9993","tle2":"2 49282  87.8970 288.0920 0001715 103.8212 256.3108 13.14503596228640"},{"id":"49283","name":"ONEWEB-0356","tle1":"1 49283U 21090E   26176.25649382 -.00000020  00000+0 -82092-4 0  9997","tle2":"2 49283  87.9198 272.8269 0001790  75.3851 284.7480 13.20774163230891"},{"id":"49284","name":"ONEWEB-0358","tle1":"1 49284U 21090F   26176.29247974  .00020684  00000+0  50987-1 0  9994","tle2":"2 49284  87.9244 272.8237 0002303  77.6683 282.4707 13.20423097231624"},{"id":"49285","name":"ONEWEB-0359","tle1":"1 49285U 21090G   26176.28343361  .00000066  00000+0  13153-3 0  9999","tle2":"2 49285  87.9198 272.8215 0002298  96.4045 263.7350 13.20773791231606"},{"id":"49286","name":"ONEWEB-0360","tle1":"1 49286U 21090H   26175.51577324  .00000071  00000+0  14281-3 0  9992","tle2":"2 49286  87.9199 272.9806 0002072 101.4047 258.7319 13.20770047230816"},{"id":"49287","name":"ONEWEB-0361","tle1":"1 49287U 21090J   26176.25482850 -.00000049  00000+0 -15321-3 0  9997","tle2":"2 49287  87.9196 272.8315 0002117  96.7480 263.3895 13.20771483231362"},{"id":"49288","name":"ONEWEB-0362","tle1":"1 49288U 21090K   26175.60727743  .00000063  00000+0  12517-3 0  9997","tle2":"2 49288  87.9179 303.4996 0002058 106.9342 253.2016 13.19724824227896"},{"id":"49289","name":"ONEWEB-0363","tle1":"1 49289U 21090L   26176.26998041  .00000015  00000+0  45297-5 0  9992","tle2":"2 49289  87.9196 272.8286 0001965  91.0605 269.0754 13.20771004231375"},{"id":"49290","name":"ONEWEB-0364","tle1":"1 49290U 21090M   26176.23294288  .00000052  00000+0  95764-4 0  9997","tle2":"2 49290  87.9199 272.8442 0002056 100.9130 259.2234 13.20771670232508"}]