OBJECT_NAME,OBJECT_ID,EPOCH,MEAN_MOTION,ECCENTRICITY,INCLINATION,RA_OF_ASC_NODE,ARG_OF_PERICENTER,MEAN_ANOMALY,EPHEMERIS_TYPE,CLASSIFICATION_TYPE,NORAD_CAT_ID,ELEMENT_SET_NO,REV_AT_EPOCH,BSTAR,MEAN_MOTION_DOT,MEAN_MOTION_DDOT
ONEWEB-0336,2021-083S,2026-06-24T15:32:58.618752,13.13472367,.00020349,87.8960,318.7418,91.1523,268.9839,0,U,49202,999,23189,-.49518757E-3,-.168E-5,0
ONEWEB-0337,2021-083T,2026-06-24T15:47:23.041248,13.13470890,.00020603,87.8959,318.7459,97.2742,262.8622,0,U,49203,999,23189,-.5961527E-3,-.205E-5,0
ONEWEB-0338,2021-083U,2026-06-25T05:20:51.957312,13.20774403,.00017869,87.9179,272.8463,105.9786,254.1544,0,U,49204,999,23787,.14574624E-3,.72E-6,0
ONEWEB-0339,2021-083V,2026-06-24T15:59:45.767616,13.13470635,.00017606,87.8961,318.7368,107.0017,253.1305,0,U,49205,999,23187,-.26469692E-3,-.84E-6,0
ONEWEB-0340,2021-083W,2026-06-25T04:14:04.223328,13.18686148,.00019583,87.9178,333.8660,91.3628,268.7729,0,U,49206,999,23102,.13592049E-3,.66E-6,0
ONEWEB-0341,2021-083X,2026-06-25T04:23:46.943808,13.18686112,.0002327,87.9169,333.8672,98.7937,261.3459,0,U,49207,999,23104,-.61076494E-4,-.11E-6,0
ONEWEB-0342,2021-083Y,2026-06-25T05:30:35.879616,13.20771450,.00020112,87.9195,272.8342,103.3640,256.7717,0,U,49208,999,23784,.18981287E-3,.9E-6,0
ONEWEB-0343,2021-083Z,2026-06-25T04:35:55.555008,13.18686237,.00018024,87.9169,333.8643,107.9802,252.1527,0,U,49209,999,23109,.54658596E-4,.34E-6,0
ONEWEB-0344,2021-083AA,2026-06-24T15:52:26.111712,13.13468966,.00021938,87.8951,318.7515,100.8392,259.2984,0,U,49210,999,23187,-.50013731E-3,-.17E-5,0
ONEWEB-0345,2021-083AB,2026-06-24T15:40:15.197088,13.13468649,.00021376,87.8969,318.7353,101.3286,258.8084,0,U,49211,999,23188,-.56386083E-3,-.193E-5,0
ONEWEB-0346,2021-083AC,2026-06-25T04:31:04.142496,13.18685561,.0002144,87.9166,333.8649,77.2895,282.8476,0,U,49212,999,23103,-.23272723E-3,-.79E-6,0
ONEWEB-0348,2021-083AD,2026-06-25T07:05:08.600352,13.20771323,.00025033,87.9197,272.8253,92.1750,267.9670,0,U,49213,999,23788,.21562814E-3,.101E-5,0
ONEWEB-0350,2021-083AE,2026-06-24T19:46:27.125184,13.13386891,.00015027,87.8962,318.7068,107.6379,252.4914,0,U,49214,999,23193,.41843365E-1,.153E-3,0
ONEWEB-0351,2021-083AF,2026-06-25T06:55:14.449152,13.20770956,.00023891,87.9197,272.8254,121.1152,239.0216,0,U,49215,999,23784,.11773225E-3,.61E-6,0
ONEWEB-0352,2021-083AG,2026-06-24T22:44:25.295136,13.13470093,.00018559,87.8961,318.6872,111.3719,248.7608,0,U,49216,999,23204,-.51481958E-3,-.175E-5,0
ONEWEB-0354,2021-083AH,2026-06-25T05:45:07.460352,13.20772968,.00024371,87.9198,272.8338,96.2378,263.9033,0,U,49217,999,23787,.7907543E-5,.16E-6,0
ONEWEB-0355,2021-083AJ,2026-06-24T19:46:39.715392,13.13481760,.00016459,87.8959,318.7130,107.8096,252.3213,0,U,49218,999,23190,.36471113E-2,.1345E-4,0
ONEWEB-0357,2021-083AK,2026-06-25T05:40:16.716576,13.20773098,.00020464,87.9200,272.8286,105.6595,254.4764,0,U,49219,999,23787,.1114309E-4,.18E-6,0
ONEWEB-0332,2021-090A,2026-06-25T06:53:27.191328,13.14502400,.00017579,87.8970,288.0948,104.1273,256.0052,0,U,49279,999,22864,.27462625E-3,.115E-5,0
ONEWEB-0347,2021-090B,2026-06-25T05:25:44.970816,13.20771782,.00017681,87.9197,272.8390,103.7300,256.4030,0,U,49280,999,23210,.34251078E-4,.27E-6,0
ONEWEB-0349,2021-090C,2026-06-25T06:11:47.927040,13.20772885,.00020989,87.9199,272.8329,100.9837,259.1533,0,U,49281,999,23089,-.38828911E-4,-.3E-7,0
ONEWEB-0353,2021-090D,2026-06-25T06:42:02.165472,13.14503596,.00017157,87.8970,288.0920,103.8212,256.3108,0,U,49282,999,22864,-.61894606E-4,-.1E-6,0
ONEWEB-0356,2021-090E,2026-06-25T06:09:21.066048,13.20774163,.000179,87.9198,272.8269,75.3851,284.7480,0,U,49283,999,23089,-.82092414E-4,-.2E-6,0
ONEWEB-0358,2021-090F,2026-06-25T07:01:10.249536,13.20423097,.00023031,87.9244,272.8237,77.6683,282.4707,0,U,49284,999,23162,.50987148E-1,.20684E-3,0
ONEWEB-0359,2021-090G,2026-06-25T06:48:08.663904,13.20773791,.00022983,87.9198,272.8215,96.4045,263.7350,0,U,49285,999,23160,.13152826E-3,.66E-6,0
ONEWEB-0360,2021-090H,2026-06-24T12:22:42.807936,13.20770047,.00020727,87.9199,272.9806,101.4047,258.7319,0,U,49286,999,23081,.14281082E-3,.71E-6,0
ONEWEB-0361,2021-090J,2026-06-25T06:06:57.182400,13.20771483,.00021179,87.9196,272.8315,96.7480,263.3895,0,U,49287,999,23136,-.15321066E-3,-.49E-6,0
ONEWEB-0362,2021-090K,2026-06-24T14:34:28.769952,13.19724824,.00020586,87.9179,303.4996,106.9342,253.2016,0,U,49288,999,22789,.12516996E-3,.63E-6,0
ONEWEB-0363,2021-090L,2026-06-25T06:28:46.307424,13.20771004,.00019655,87.9196,272.8286,91.0605,269.0754,0,U,49289,999,23137,.4529716E-5,.15E-6,0
ONEWEB-0364,2021-090M,2026-06-25T05:35:26.264832,13.20771670,.00020568,87.9199,272.8442,100.9130,259.2234,0,U,49290,999,23250,.9576416E-4,.52E-6,0
